[{"OBJECT_NAME":"STARLINK-5874","OBJECT_ID":"2023-058AN","EPOCH":"2026-03-09T22:41:33.227808","MEAN_MOTION":15.0126198,"ECCENTRICITY":0.00027368,"INCLINATION":97.6041,"RA_OF_ASC_NODE":70.5404,"ARG_OF_PERICENTER":84.1186,"MEAN_ANOMALY":276.0351,"EPHEMERIS_TYPE":0,"CLASSIFICATION_TYPE":"U","NORAD_CAT_ID":56353,"ELEMENT_SET_NO":999,"REV_AT_EPOCH":15817,"BSTAR":2.6054595e-5,"MEAN_MOTION_DOT":2.76e-6,"MEAN_MOTION_DDOT":0},{"OBJECT_NAME":"PEGASUS DEB","OBJECT_ID":"1994-029ADZ","EPOCH":"2026-03-09T09:44:41.678880","MEAN_MOTION":14.71787317,"ECCENTRICITY":0.01294019,"INCLINATION":81.9867,"RA_OF_ASC_NODE":205.808,"ARG_OF_PERICENTER":256.1704,"MEAN_ANOMALY":159.4284,"EPHEMERIS_TYPE":0,"CLASSIFICATION_TYPE":"U","NORAD_CAT_ID":25445,"ELEMENT_SET_NO":999,"REV_AT_EPOCH":52180,"BSTAR":0.00051371535,"MEAN_MOTION_DOT":3.68e-5,"MEAN_MOTION_DDOT":0}]
